0 INTELSAT 801
1 24742U 97009A   13281.37769500 -.00000223  00000-0  10000-3 0  4241
2 24742 004.3329 064.1219 0003320 138.5176 281.0477 01.00272060 60861
0 INTELSAT 801
1 24742U 97009A   13282.76089571 -.00000228  00000-0  10000-3 0  4254
2 24742 004.3356 064.1086 0003386 138.5685 060.3259 01.00271729 60878
0 INTELSAT 801
1 24742U 97009A   13284.24207569 -.00000232  00000-0  10000-3 0  4264
2 24742 004.3385 064.0947 0003408 138.2154 235.3730 01.00271283 60893
0 INTELSAT 801
1 24742U 97009A   13285.36617091 -.00000235  00000-0  10000-3 0  4277
2 24742 004.3406 064.0810 0003485 136.8243 282.5590 01.00271041 60906
0 INTELSAT 801
1 24742U 97009A   13289.35781162 -.00000235  00000-0  10000-3 0  4282
2 24742 004.3533 064.0576 0003606 134.8451 285.4828 01.00271074 60946
0 INTELSAT 801
1 24742U 97009A   13292.34300082 -.00000231  00000-0  10000-3 0  4290
2 24742 004.3593 064.0281 0003609 134.7622 283.1943 01.00270458 60978
0 INTELSAT 801
1 24742U 97009A   13295.31177395 -.00000226  00000-0  10000-3 0  4305
2 24742 004.3640 063.9935 0003864 144.6472 265.0294 01.00270851 61001
